{"fetched_at":"2026-03-30T06:02:59Z","count":15439,"tles":[{"name":"STARLINK-31830","line1":"1 59769U 24091S   26087.90006806  .00000070  00000+0  14482-4 0  9993","line2":"2 59769  53.1619 297.7929 0001104  95.2754 264.8372 15.30189986105947","category":"Starlink"}]}