{
  "norad_id": 59769,
  "name": "STARLINK-31830",
  "history": [
    {
      "epoch": "2026-03-28T21:36:05.880384",
      "apogee_km": 476.0015829507929,
      "perigee_km": 474.48835621190847,
      "latitude_deg": 7.289469189570243,
      "longitude_deg": -116.69346624007449,
      "semi_major_axis_km": 6853.38196958135,
      "eccentricity": 0.0001104,
      "inclination_deg": 53.1619,
      "raan_deg": 297.7929,
      "arg_perigee_deg": 95.2754,
      "mean_anomaly_deg": 264.8372,
      "mean_motion_rev_day": 15.30189986
    }
  ]
}